{
  "type": "FeatureCollection",
  "features": [
    {
      "type": "Feature",
      "properties": {
        "norad_id": 30360,
        "name": "FENGYUN 1C DEB",
        "group": "fengyun-1c-debris",
        "lat": 75.6919277422254,
        "lon": 12.678266322579363,
        "alt_km": 794.6894382008413,
        "timestamp": "2025-12-06T07:31:40.512767+00:00",
        "meta_object_name": "FENGYUN 1C DEB",
        "meta_object_id": "1999-025ABX",
        "meta_epoch": "2025-12-05T04:29:09.917376",
        "meta_mean_motion": 14.26413118,
        "meta_eccentricity": 0.00315493,
        "meta_inclination": 98.7662,
        "meta_ra_of_asc_node": 48.7793,
        "meta_arg_of_pericenter": 167.5812,
        "meta_mean_anomaly": 248.7662,
        "meta_ephemeris_type": 0,
        "meta_classification_type": "U",
        "meta_norad_cat_id": 30360,
        "meta_element_set_no": 999,
        "meta_rev_at_epoch": 97317,
        "meta_bstar": 0.0032752819,
        "meta_mean_motion_dot": 7.883e-05,
        "meta_mean_motion_ddot": 0,
        "tle_line1": "1 30360U 99025ABX 25339.18692034  .00007883  00000+0  32753-2 0  9999",
        "tle_line2": "2 30360  98.7662  48.7793 0031549 167.5812 248.7662 14.26413118973175"
      },
      "geometry": {
        "type": "Point",
        "coordinates": [
          12.678266322579363,
          75.6919277422254
        ]
      }
    },
    {
      "type": "Feature",
      "properties": {
        "norad_id": 30361,
        "name": "FENGYUN 1C DEB",
        "group": "fengyun-1c-debris",
        "lat": -26.092348641261747,
        "lon": -167.8445750461103,
        "alt_km": 856.3983308180432,
        "timestamp": "2025-12-06T07:31:40.512776+00:00",
        "meta_object_name": "FENGYUN 1C DEB",
        "meta_object_id": "1999-025ABY",
        "meta_epoch": "2025-12-05T00:14:26.988576",
        "meta_mean_motion": 14.25307166,
        "meta_eccentricity": 0.0065755,
        "meta_inclination": 98.5694,
        "meta_ra_of_asc_node": 15.1168,
        "meta_arg_of_pericenter": 53.4039,
        "meta_mean_anomaly": 307.3166,
        "meta_ephemeris_type": 0,
        "meta_classification_type": "U",
        "meta_norad_cat_id": 30361,
        "meta_element_set_no": 999,
        "meta_rev_at_epoch": 97506,
        "meta_bstar": 0.001807592,
        "meta_mean_motion_dot": 4.313e-05,
        "meta_mean_motion_ddot": 0,
        "tle_line1": "1 30361U 99025ABY 25339.01003459  .00004313  00000+0  18076-2 0  9996",
        "tle_line2": "2 30361  98.5694  15.1168 0065755  53.4039 307.3166 14.25307166975068"
      },
      "geometry": {
        "type": "Point",
        "coordinates": [
          -167.8445750461103,
          -26.092348641261747
        ]
      }
    },
    {
      "type": "Feature",
      "properties": {
        "norad_id": 30362,
        "name": "FENGYUN 1C DEB",
        "group": "fengyun-1c-debris",
        "lat": 15.218157834434866,
        "lon": 85.54489699738392,
        "alt_km": 920.7527038844446,
        "timestamp": "2025-12-06T07:31:40.512799+00:00",
        "meta_object_name": "FENGYUN 1C DEB",
        "meta_object_id": "1999-025ABZ",
        "meta_epoch": "2025-12-05T05:14:18.115008",
        "meta_mean_motion": 14.11712528,
        "meta_eccentricity": 0.00962699,
        "meta_inclination": 99.0508,
        "meta_ra_of_asc_node": 261.9549,
        "meta_arg_of_pericenter": 4.3578,
        "meta_mean_anomaly": 355.8409,
        "meta_ephemeris_type": 0,
        "meta_classification_type": "U",
        "meta_norad_cat_id": 30362,
        "meta_element_set_no": 999,
        "meta_rev_at_epoch": 96062,
        "meta_bstar": 0.0052532072,
        "meta_mean_motion_dot": 9.958e-05,
        "meta_mean_motion_ddot": 0,
        "tle_line1": "1 30362U 99025ABZ 25339.21826522  .00009958  00000+0  52532-2 0  9998",
        "tle_line2": "2 30362  99.0508 261.9549 0096269   4.3578 355.8409 14.11712528960621"
      },
      "geometry": {
        "type": "Point",
        "coordinates": [
          85.54489699738392,
          15.218157834434866
        ]
      }
    },
    {
      "type": "Feature",
      "properties": {
        "norad_id": 30363,
        "name": "FENGYUN 1C DEB",
        "group": "fengyun-1c-debris",
        "lat": -59.04539102483568,
        "lon": 66.73031053461563,
        "alt_km": 870.210950069546,
        "timestamp": "2025-12-06T07:31:40.512810+00:00",
        "meta_object_name": "FENGYUN 1C DEB",
        "meta_object_id": "1999-025ACA",
        "meta_epoch": "2025-12-03T03:32:29.233248",
        "meta_mean_motion": 14.1678675,
        "meta_eccentricity": 0.00801556,
        "meta_inclination": 99.0314,
        "meta_ra_of_asc_node": 48.1398,
        "meta_arg_of_pericenter": 66.9897,
        "meta_mean_anomaly": 293.9706,
        "meta_ephemeris_type": 0,
        "meta_classification_type": "U",
        "meta_norad_cat_id": 30363,
        "meta_element_set_no": 999,
        "meta_rev_at_epoch": 96688,
        "meta_bstar": 0.0018687848,
        "meta_mean_motion_dot": 3.816e-05,
        "meta_mean_motion_ddot": 0,
        "tle_line1": "1 30363U 99025ACA 25337.14756057  .00003816  00000+0  18688-2 0  9995",
        "tle_line2": "2 30363  99.0314  48.1398 0080155  66.9897 293.9706 14.16786750966888"
      },
      "geometry": {
        "type": "Point",
        "coordinates": [
          66.73031053461563,
          -59.04539102483568
        ]
      }
    },
    {
      "type": "Feature",
      "properties": {
        "norad_id": 30364,
        "name": "FENGYUN 1C DEB",
        "group": "fengyun-1c-debris",
        "lat": 61.60569268972018,
        "lon": -118.15985719985956,
        "alt_km": 795.7545533387047,
        "timestamp": "2025-12-06T07:31:40.512820+00:00",
        "meta_object_name": "FENGYUN 1C DEB",
        "meta_object_id": "1999-025ACB",
        "meta_epoch": "2025-12-01T12:50:41.724960",
        "meta_mean_motion": 14.16673291,
        "meta_eccentricity": 0.03345489,
        "meta_inclination": 98.1359,
        "meta_ra_of_asc_node": 252.8044,
        "meta_arg_of_pericenter": 352.9961,
        "meta_mean_anomaly": 188.5388,
        "meta_ephemeris_type": 0,
        "meta_classification_type": "U",
        "meta_norad_cat_id": 30364,
        "meta_element_set_no": 999,
        "meta_rev_at_epoch": 95482,
        "meta_bstar": 0.0039205602,
        "meta_mean_motion_dot": 0.00013549,
        "meta_mean_motion_ddot": 0,
        "tle_line1": "1 30364U 99025ACB 25335.53520515  .00013549  00000+0  39206-2 0  9998",
        "tle_line2": "2 30364  98.1359 252.8044 0334548 352.9961 188.5388 14.16673291954829"
      },
      "geometry": {
        "type": "Point",
        "coordinates": [
          -118.15985719985956,
          61.60569268972018
        ]
      }
    },
    {
      "type": "Feature",
      "properties": {
        "norad_id": 30365,
        "name": "FENGYUN 1C DEB",
        "group": "fengyun-1c-debris",
        "lat": -22.415555004752303,
        "lon": 151.2804100188934,
        "alt_km": 795.5801162160442,
        "timestamp": "2025-12-06T07:31:40.512830+00:00",
        "meta_object_name": "FENGYUN 1C DEB",
        "meta_object_id": "1999-025ACC",
        "meta_epoch": "2025-12-03T23:00:49.912992",
        "meta_mean_motion": 14.19217218,
        "meta_eccentricity": 0.01677479,
        "meta_inclination": 98.6185,
        "meta_ra_of_asc_node": 332.5757,
        "meta_arg_of_pericenter": 136.6363,
        "meta_mean_anomaly": 280.03,
        "meta_ephemeris_type": 0,
        "meta_classification_type": "U",
        "meta_norad_cat_id": 30365,
        "meta_element_set_no": 999,
        "meta_rev_at_epoch": 97488,
        "meta_bstar": 0.00032793125,
        "meta_mean_motion_dot": 7.49e-06,
        "meta_mean_motion_ddot": 0,
        "tle_line1": "1 30365U 99025ACC 25337.95891103  .00000749  00000+0  32793-3 0  9994",
        "tle_line2": "2 30365  98.6185 332.5757 0167747 136.6363 280.0300 14.19217218974883"
      },
      "geometry": {
        "type": "Point",
        "coordinates": [
          151.2804100188934,
          -22.415555004752303
        ]
      }
    },
    {
      "type": "Feature",
      "properties": {
        "norad_id": 30366,
        "name": "FENGYUN 1C DEB",
        "group": "fengyun-1c-debris",
        "lat": -39.644770038501036,
        "lon": -94.91678161876152,
        "alt_km": 779.6534178599941,
        "timestamp": "2025-12-06T07:31:40.512840+00:00",
        "meta_object_name": "FENGYUN 1C DEB",
        "meta_object_id": "1999-025ACD",
        "meta_epoch": "2025-12-04T17:29:49.291872",
        "meta_mean_motion": 14.33450786,
        "meta_eccentricity": 0.00619664,
        "meta_inclination": 98.9225,
        "meta_ra_of_asc_node": 255.971,
        "meta_arg_of_pericenter": 243.2021,
        "meta_mean_anomaly": 183.2564,
        "meta_ephemeris_type": 0,
        "meta_classification_type": "U",
        "meta_norad_cat_id": 30366,
        "meta_element_set_no": 999,
        "meta_rev_at_epoch": 98208,
        "meta_bstar": 0.001227813,
        "meta_mean_motion_dot": 3.418e-05,
        "meta_mean_motion_ddot": 0,
        "tle_line1": "1 30366U 99025ACD 25338.72904273  .00003418  00000+0  12278-2 0  9995",
        "tle_line2": "2 30366  98.9225 255.9710 0061966 243.2021 183.2564 14.33450786982083"
      },
      "geometry": {
        "type": "Point",
        "coordinates": [
          -94.91678161876152,
          -39.644770038501036
        ]
      }
    }
  ]
}